HULIANWANG DIGUI-144    
1 67442U 26007H   26025.74911671  .00000079  00000+0  18259-3 0  9992
2 67442  50.0094 246.1413 0001615 332.0180  28.0631 13.89759554  1696
HULIANWANG DIGUI-145    
1 67443U 26007J   26026.53823429  .00000103  00000+0  20209-3 0  9990
2 67443  50.0081 242.9867 0000223 295.3706  64.7169 13.89723738  1800
CZ-8A R/B               
1 67444U 26007K   26026.62571024  .00000167  00000+0  16371-3 0  9997
2 67444  50.0084 240.7643 0092173 127.6142 233.3178 14.13548842  1834
STARLINK-36542          
1 67445U 26008A   26026.58334491 -.01077197  00000+0 -42400-2 0  9990
2 67445  43.0011  89.3260 0001327 280.4622 333.5070 15.88391647  3020
STARLINK-36539          
1 67446U 26008B   26026.58334491 -.01074386  00000+0 -42240-2 0  9990
2 67446  43.0010  89.3190 0001420 279.6832 337.0402 15.88406859  3029
STARLINK-36440          
1 67447U 26008C   26026.58334491 -.01093856  00000+0 -43054-2 0  9998
2 67447  43.0011  89.3118 0001333 282.2331 337.4583 15.88431512  3026
STARLINK-36423          
1 67448U 26008D   26026.58334491 -.01099334  00000+0 -43254-2 0  9998
2 67448  43.0012  89.3047 0001363 283.8414 338.5313 15.88451414  3027
STARLINK-36519          
1 67449U 26008E   26026.58334491 -.01107235  00000+0 -43561-2 0  9990
2 67449  43.0012  89.2974 0001362 277.3328 347.9379 15.88471910  3026
STARLINK-36525          
1 67450U 26008F   26026.58334491 -.01116553  00000+0 -43948-2 0  9994
2 67450  43.0009  89.2888 0001338 279.4527 349.1731 15.88485389  3026
STARLINK-36511          
1 67451U 26008G   26026.58334491 -.01127983  00000+0 -44428-2 0  9998
2 67451  43.0009  89.2802 0001382 280.8487 351.2439 15.88498993  3027
STARLINK-36524          
1 67452U 26008H   26026.58334491 -.01137755  00000+0 -44819-2 0  9991
2 67452  43.0010  89.2725 0001408 283.6847 351.3449 15.88519732  3021
STARLINK-36518          
1 67453U 26008J   26026.58334491 -.01498692  00000+0 -53318-2 0  9996
2 67453  42.9997  88.9277 0001507 289.2776 120.8569 15.90826244  3041
