CCSDS_OMM_VERS = 2.0
CREATION_DATE  = 
ORIGINATOR     = 

OBJECT_NAME    = HULIANWANG DIGUI-144
OBJECT_ID      = 2026-007H
CENTER_NAME    = EARTH
REF_FRAME      = TEME
TIME_SYSTEM    = UTC
MEAN_ELEMENT_THEORY = SGP/SGP4

EPOCH          = 2026-01-25T17:58:43.683744
MEAN_MOTION    = 13.89759554
ECCENTRICITY   = .00016158
INCLINATION    = 50.0094
RA_OF_ASC_NODE = 246.1413
ARG_OF_PERICENTER = 332.0180
MEAN_ANOMALY   = 28.0631

EPHEMERIS_TYPE = 0
CLASSIFICATION_TYPE = U
NORAD_CAT_ID   = 67442
ELEMENT_SET_NO = 999
REV_AT_EPOCH   = 169
BSTAR          = .18258772E-3
MEAN_MOTION_DOT = .79E-6
MEAN_MOTION_DDOT = 0

CCSDS_OMM_VERS = 2.0
CREATION_DATE  = 
ORIGINATOR     = 

OBJECT_NAME    = HULIANWANG DIGUI-145
OBJECT_ID      = 2026-007J
CENTER_NAME    = EARTH
REF_FRAME      = TEME
TIME_SYSTEM    = UTC
MEAN_ELEMENT_THEORY = SGP/SGP4

EPOCH          = 2026-01-26T12:55:03.442656
MEAN_MOTION    = 13.89723738
ECCENTRICITY   = .0000223
INCLINATION    = 50.0081
RA_OF_ASC_NODE = 242.9867
ARG_OF_PERICENTER = 295.3706
MEAN_ANOMALY   = 64.7169

EPHEMERIS_TYPE = 0
CLASSIFICATION_TYPE = U
NORAD_CAT_ID   = 67443
ELEMENT_SET_NO = 999
REV_AT_EPOCH   = 180
BSTAR          = .20208721E-3
MEAN_MOTION_DOT = .103E-5
MEAN_MOTION_DDOT = 0

CCSDS_OMM_VERS = 2.0
CREATION_DATE  = 
ORIGINATOR     = 

OBJECT_NAME    = CZ-8A R/B
OBJECT_ID      = 2026-007K
CENTER_NAME    = EARTH
REF_FRAME      = TEME
TIME_SYSTEM    = UTC
MEAN_ELEMENT_THEORY = SGP/SGP4

EPOCH          = 2026-01-26T15:01:01.364736
MEAN_MOTION    = 14.13548842
ECCENTRICITY   = .00921734
INCLINATION    = 50.0084
RA_OF_ASC_NODE = 240.7643
ARG_OF_PERICENTER = 127.6142
MEAN_ANOMALY   = 233.3178

EPHEMERIS_TYPE = 0
CLASSIFICATION_TYPE = U
NORAD_CAT_ID   = 67444
ELEMENT_SET_NO = 999
REV_AT_EPOCH   = 183
BSTAR          = .16370979E-3
MEAN_MOTION_DOT = .167E-5
MEAN_MOTION_DDOT = 0

CCSDS_OMM_VERS = 2.0
CREATION_DATE  = 
ORIGINATOR     = 

OBJECT_NAME    = STARLINK-36542
OBJECT_ID      = 2026-008A
CENTER_NAME    = EARTH
REF_FRAME      = TEME
TIME_SYSTEM    = UTC
MEAN_ELEMENT_THEORY = SGP/SGP4

EPOCH          = 2026-01-26T14:00:01.000224
MEAN_MOTION    = 15.88391647
ECCENTRICITY   = .00013276
INCLINATION    = 43.0011
RA_OF_ASC_NODE = 89.3260
ARG_OF_PERICENTER = 280.4622
MEAN_ANOMALY   = 333.5070

EPHEMERIS_TYPE = 0
CLASSIFICATION_TYPE = U
NORAD_CAT_ID   = 67445
ELEMENT_SET_NO = 999
REV_AT_EPOCH   = 302
BSTAR          = -.42399523E-2
MEAN_MOTION_DOT = -.1077197E-1
MEAN_MOTION_DDOT = 0

CCSDS_OMM_VERS = 2.0
CREATION_DATE  = 
ORIGINATOR     = 

OBJECT_NAME    = STARLINK-36539
OBJECT_ID      = 2026-008B
CENTER_NAME    = EARTH
REF_FRAME      = TEME
TIME_SYSTEM    = UTC
MEAN_ELEMENT_THEORY = SGP/SGP4

EPOCH          = 2026-01-26T14:00:01.000224
MEAN_MOTION    = 15.88406859
ECCENTRICITY   = .00014203
INCLINATION    = 43.0010
RA_OF_ASC_NODE = 89.3190
ARG_OF_PERICENTER = 279.6832
MEAN_ANOMALY   = 337.0402

EPHEMERIS_TYPE = 0
CLASSIFICATION_TYPE = U
NORAD_CAT_ID   = 67446
ELEMENT_SET_NO = 999
REV_AT_EPOCH   = 302
BSTAR          = -.42239816E-2
MEAN_MOTION_DOT = -.1074386E-1
MEAN_MOTION_DDOT = 0

CCSDS_OMM_VERS = 2.0
CREATION_DATE  = 
ORIGINATOR     = 

OBJECT_NAME    = STARLINK-36440
OBJECT_ID      = 2026-008C
CENTER_NAME    = EARTH
REF_FRAME      = TEME
TIME_SYSTEM    = UTC
MEAN_ELEMENT_THEORY = SGP/SGP4

EPOCH          = 2026-01-26T14:00:01.000224
MEAN_MOTION    = 15.88431512
ECCENTRICITY   = .00013338
INCLINATION    = 43.0011
RA_OF_ASC_NODE = 89.3118
ARG_OF_PERICENTER = 282.2331
MEAN_ANOMALY   = 337.4583

EPHEMERIS_TYPE = 0
CLASSIFICATION_TYPE = U
NORAD_CAT_ID   = 67447
ELEMENT_SET_NO = 999
REV_AT_EPOCH   = 302
BSTAR          = -.43054442E-2
MEAN_MOTION_DOT = -.1093856E-1
MEAN_MOTION_DDOT = 0

CCSDS_OMM_VERS = 2.0
CREATION_DATE  = 
ORIGINATOR     = 

OBJECT_NAME    = STARLINK-36423
OBJECT_ID      = 2026-008D
CENTER_NAME    = EARTH
REF_FRAME      = TEME
TIME_SYSTEM    = UTC
MEAN_ELEMENT_THEORY = SGP/SGP4

EPOCH          = 2026-01-26T14:00:01.000224
MEAN_MOTION    = 15.88451414
ECCENTRICITY   = .00013635
INCLINATION    = 43.0012
RA_OF_ASC_NODE = 89.3047
ARG_OF_PERICENTER = 283.8414
MEAN_ANOMALY   = 338.5313

EPHEMERIS_TYPE = 0
CLASSIFICATION_TYPE = U
NORAD_CAT_ID   = 67448
ELEMENT_SET_NO = 999
REV_AT_EPOCH   = 302
BSTAR          = -.43254232E-2
MEAN_MOTION_DOT = -.1099334E-1
MEAN_MOTION_DDOT = 0

CCSDS_OMM_VERS = 2.0
CREATION_DATE  = 
ORIGINATOR     = 

OBJECT_NAME    = STARLINK-36519
OBJECT_ID      = 2026-008E
CENTER_NAME    = EARTH
REF_FRAME      = TEME
TIME_SYSTEM    = UTC
MEAN_ELEMENT_THEORY = SGP/SGP4

EPOCH          = 2026-01-26T14:00:01.000224
MEAN_MOTION    = 15.88471910
ECCENTRICITY   = .00013629
INCLINATION    = 43.0012
RA_OF_ASC_NODE = 89.2974
ARG_OF_PERICENTER = 277.3328
MEAN_ANOMALY   = 347.9379

EPHEMERIS_TYPE = 0
CLASSIFICATION_TYPE = U
NORAD_CAT_ID   = 67449
ELEMENT_SET_NO = 999
REV_AT_EPOCH   = 302
BSTAR          = -.43561459E-2
MEAN_MOTION_DOT = -.1107235E-1
MEAN_MOTION_DDOT = 0

CCSDS_OMM_VERS = 2.0
CREATION_DATE  = 
ORIGINATOR     = 

OBJECT_NAME    = STARLINK-36525
OBJECT_ID      = 2026-008F
CENTER_NAME    = EARTH
REF_FRAME      = TEME
TIME_SYSTEM    = UTC
MEAN_ELEMENT_THEORY = SGP/SGP4

EPOCH          = 2026-01-26T14:00:01.000224
MEAN_MOTION    = 15.88485389
ECCENTRICITY   = .00013383
INCLINATION    = 43.0009
RA_OF_ASC_NODE = 89.2888
ARG_OF_PERICENTER = 279.4527
MEAN_ANOMALY   = 349.1731

EPHEMERIS_TYPE = 0
CLASSIFICATION_TYPE = U
NORAD_CAT_ID   = 67450
ELEMENT_SET_NO = 999
REV_AT_EPOCH   = 302
BSTAR          = -.43948273E-2
MEAN_MOTION_DOT = -.1116553E-1
MEAN_MOTION_DDOT = 0

CCSDS_OMM_VERS = 2.0
CREATION_DATE  = 
ORIGINATOR     = 

OBJECT_NAME    = STARLINK-36511
OBJECT_ID      = 2026-008G
CENTER_NAME    = EARTH
REF_FRAME      = TEME
TIME_SYSTEM    = UTC
MEAN_ELEMENT_THEORY = SGP/SGP4

EPOCH          = 2026-01-26T14:00:01.000224
MEAN_MOTION    = 15.88498993
ECCENTRICITY   = .00013824
INCLINATION    = 43.0009
RA_OF_ASC_NODE = 89.2802
ARG_OF_PERICENTER = 280.8487
MEAN_ANOMALY   = 351.2439

EPHEMERIS_TYPE = 0
CLASSIFICATION_TYPE = U
NORAD_CAT_ID   = 67451
ELEMENT_SET_NO = 999
REV_AT_EPOCH   = 302
BSTAR          = -.44428078E-2
MEAN_MOTION_DOT = -.1127983E-1
MEAN_MOTION_DDOT = 0

CCSDS_OMM_VERS = 2.0
CREATION_DATE  = 
ORIGINATOR     = 

OBJECT_NAME    = STARLINK-36524
OBJECT_ID      = 2026-008H
CENTER_NAME    = EARTH
REF_FRAME      = TEME
TIME_SYSTEM    = UTC
MEAN_ELEMENT_THEORY = SGP/SGP4

EPOCH          = 2026-01-26T14:00:01.000224
MEAN_MOTION    = 15.88519732
ECCENTRICITY   = .00014086
INCLINATION    = 43.0010
RA_OF_ASC_NODE = 89.2725
ARG_OF_PERICENTER = 283.6847
MEAN_ANOMALY   = 351.3449

EPHEMERIS_TYPE = 0
CLASSIFICATION_TYPE = U
NORAD_CAT_ID   = 67452
ELEMENT_SET_NO = 999
REV_AT_EPOCH   = 302
BSTAR          = -.44818502E-2
MEAN_MOTION_DOT = -.1137755E-1
MEAN_MOTION_DDOT = 0

CCSDS_OMM_VERS = 2.0
CREATION_DATE  = 
ORIGINATOR     = 

OBJECT_NAME    = STARLINK-36518
OBJECT_ID      = 2026-008J
CENTER_NAME    = EARTH
REF_FRAME      = TEME
TIME_SYSTEM    = UTC
MEAN_ELEMENT_THEORY = SGP/SGP4

EPOCH          = 2026-01-26T14:00:01.000224
MEAN_MOTION    = 15.90826244
ECCENTRICITY   = .00015076
INCLINATION    = 42.9997
RA_OF_ASC_NODE = 88.9277
ARG_OF_PERICENTER = 289.2776
MEAN_ANOMALY   = 120.8569

EPHEMERIS_TYPE = 0
CLASSIFICATION_TYPE = U
NORAD_CAT_ID   = 67453
ELEMENT_SET_NO = 999
REV_AT_EPOCH   = 304
BSTAR          = -.5331778E-2
MEAN_MOTION_DOT = -.1498692E-1
MEAN_MOTION_DDOT = 0

